IRIDIUM 112             
1 41925U 17003J   24302.54294104  .00001007  00000+0  35239-3 0  9994
2 41925  86.3974 337.6508 0002010 101.4099 258.7323 14.34220107407756
IRIDIUM 111             
1 41926U 17003K   24302.39071856  .00000994  00000+0  34785-3 0  9994
2 41926  86.3978 337.7720 0002178  97.7063 262.4380 14.34218172407711
IRIDIUM 113             
1 42803U 17039A   24302.23114177  .00001378  00000+0  48485-3 0  9994
2 42803  86.4030 211.5880 0001933  88.3176 271.8241 14.34224278385620
IRIDIUM 123             
1 42804U 17039B   24302.76100371  .00000768  00000+0  26699-3 0  9999
2 42804  86.3970 242.8261 0002271  83.6870 276.4584 14.34218865384465
IRIDIUM 120             
1 42805U 17039C   24302.50387666  .00000651  00000+0  22526-3 0  9992
2 42805  86.4021 211.3339 0002265  79.1590 280.9860 14.34215030385653
IRIDIUM 115             
1 42806U 17039D   24302.45738226  .00001871  00000+0  55007-3 0  9994
2 42806  86.4554 211.3981 0002333  85.7135 274.4332 14.43285887388193
IRIDIUM 118             
1 42807U 17039E   24302.58341000  .00001366  00000+0  48050-3 0  9998
2 42807  86.3971 242.9002 0002103  81.6863 278.4571 14.34216230384436
IRIDIUM 117             
1 42808U 17039F   24302.60244018  .00000089  00000+0  24574-4 0  9990
2 42808  86.3968 242.8558 0002350  84.1098 276.0366 14.34213822384474
